
STARLINK-31824          
1 59804U 24093Y   24329.11115906 -.00000537  00000+0 -56019-5 0  9990
2 59804  42.9985 357.1145 0000601 278.7864  81.2924 15.40691178 30551
2024-094A               
1 59805U 24094A   24329.49591029  .00023350  00000+0  10051-2 0  9996
2 59805  97.4546  39.3863 0004135 247.5752 112.5047 15.22606998 28672
2024-094B               
1 59806U 24094B   24329.46330867  .00022641  00000+0  97475-3 0  9993
2 59806  97.4559  39.4281 0005295 263.6534  96.4099 15.22602626 28667
2024-094C               
1 59807U 24094C   24329.48132228  .00023441  00000+0  10059-2 0  9998
2 59807  97.4574  39.4411 0004519 247.8713 112.2044 15.22710537 28669
2024-094D               
1 59808U 24094D   24329.45011783  .00023236  00000+0  98801-3 0  9992
2 59808  97.4533  39.2712 0002910 205.1488 154.9607 15.23027456 28655
2024-092K               
1 59809U 24092K   24328.29657430  .00019794  00000+0  10814-2 0  9998
2 59809  97.6098  79.0928 0011735 352.2604   7.8444 15.14287062 28212
2024-095A               
1 59810U 24095A   24329.44727569  .00013305  00000+0  77095-3 0  9999
2 59810  97.5871  43.9166 0006515  82.1610 278.0360 15.12306347 28318
2024-095B               
1 59811U 24095B   24329.50186441  .00136794  00000+0  23278-2 0  9996
2 59811  97.5865  47.4356 0005948  99.3787 260.8137 15.50899956 28547
2024-095C               
1 59812U 24095C   24329.44940418  .00030330  00000+0  13984-2 0  9994
2 59812  97.5860  44.6478 0008199 356.1479   3.9691 15.20176701 28364
2024-095D               
1 59813U 24095D   24329.49490640  .00034062  00000+0  14911-2 0  9994
2 59813  97.5851  44.8988 0007445 354.2870   5.8279 15.21935774 28389
STARLINK-31947          
1 59835U 24097A   24329.31191175  .00000815  00000+0  26777-4 0  9996
2 59835  43.0034  63.3616 0001412 288.3104  71.7598 15.40704857 29857
STARLINK-31929          
1 59836U 24097B   24328.63227719  .00001533  00000+0  43928-4 0  9990
2 59836  42.9997  66.8527 0000042 266.7928  93.2924 15.40700464 29734
STARLINK-31927          
1 59837U 24097C   24329.29626032  .00007282  00000+0  18163-3 0  9994
2 59837  43.0032  63.2446 0002481 288.8528  71.2059 15.40663740 29806
STARLINK-31855          
1 59838U 24097D   24328.60054915 -.00000089  00000+0  51541-5 0  9992
2 59838  43.0065  66.6009 0002366 262.6413  97.4174 15.40696482 29739
STARLINK-31887          
1 59839U 24097E   24329.27832542 -.00001361  00000+0 -25334-4 0  9992
2 59839  43.0033  63.0946 0001684 262.2273  97.8392 15.40688583 29805
STARLINK-31925          
1 59840U 24097F   24329.27384606 -.00001229  00000+0 -22172-4 0  9997
2 59840  43.0012  63.0660 0001457 265.9390  94.1300 15.40696103 29801
STARLINK-31852          
1 59841U 24097G   24328.28572081  .00002490  00000+0  66898-4 0  9996
2 59841  43.0077  68.5500 0003355 288.2338  71.8154 15.40690678 29681
STARLINK-31906          
1 59842U 24097H   24329.28953227 -.00001484  00000+0 -28238-4 0  9993
2 59842  43.0085  63.1882 0003309 288.0771  71.9725 15.40688888 29857
STARLINK-31857          
1 59843U 24097J   24329.31851164 -.00001658  00000+0 -32443-4 0  9991
2 59843  43.0031  62.5327 0001374 229.4919 130.5818 15.40687818 29867
STARLINK-31851          
1 59844U 24097K   24328.59431649  .00000843  00000+0  27455-4 0  9993
2 59844  43.0084  67.4352 0002902 296.8959  63.1601 15.40706444 29721
STARLINK-31903          
1 59845U 24097L   24329.33419313 -.00000835  00000+0 -12737-4 0  9991
2 59845  43.0012  62.6574 0000595 251.7091 108.3701 15.40691089 29865
STARLINK-31922          
1 59846U 24097M   24329.31590204  .00004172  00000+0  10705-3 0  9997
2 59846  43.0029  62.5134 0002831 256.5635 103.4906 15.40712776 29812
STARLINK-31889          
1 59847U 24097N   24329.35207980  .00004595  00000+0  11708-3 0  9991
2 59847  43.0036  62.7917 0002617 156.9230 203.1745 15.40733797 29813
STARLINK-31859          
1 59848U 24097P   24329.32522967  .00000568  00000+0  20879-4 0  9990
2 59848  43.0030  62.5856 0002224 288.6599  71.4016 15.40684575 29819
STARLINK-31895          
1 59849U 24097Q   24329.30520205 -.00000502  00000+0 -47547-5 0  9994
2 59849  43.0039  63.3040 0001394 253.1297 106.9407 15.40694813 29805
STARLINK-31899          
1 59850U 24097R   24328.65243222 -.00001006  00000+0 -16805-4 0  9996
2 59850  43.0083  67.0064 0002450 284.7433  75.3152 15.40694748 29734
STARLINK-31896          
1 59851U 24097S   24329.29848944 -.00000832  00000+0 -12635-4 0  9993
2 59851  43.0066  63.2518 0002255 277.6637  82.3964 15.40691902 29859
STARLINK-31897          
1 59852U 24097T   24328.69580239  .00016325  00000+0  36670-3 0  9993
2 59852  43.0023  66.4709 0001930   1.0069 359.0792 15.43105284 29744
STARLINK-31892          
1 59853U 24097U   24328.70158725  .00004533  00000+0  11577-3 0  9994
2 59853  43.0040  66.5106 0001566 291.0433  69.0255 15.40684557 29741
STARLINK-31891          
1 59854U 24097V   24329.28280189 -.00002848  00000+0 -60925-4 0  9990
2 59854  43.0017  63.1305 0001837 229.1144 130.9554 15.40705787 29853
STARLINK-31882          
1 59855U 24097W   24329.26712618 -.00000783  00000+0 -11491-4 0  9996
2 59855  43.0035  63.0043 0001695 289.4110  70.6563 15.40689429 29850
STARLINK-31691          
1 59856U 24097X   24328.73728919 -.00000581  00000+0 -66487-5 0  9991
2 59856  43.0057  65.9134 0001589 261.5787  98.4890 15.40695716 29756
STARLINK-31569          
1 59857U 24097Y   24328.57864913 -.00000360  00000+0 -13386-5 0  9994
2 59857  43.0063  67.3160 0003084 308.4220  51.6359 15.40689643 29724
STARLINK-31654          
1 59858U 24098A   24329.32038634 -.00001354  00000+0 -25161-4 0  9990
2 59858  43.0003  72.1935 0000910 220.9376 139.1412 15.40697899 29700
STARLINK-31442          
1 59859U 24098B   24328.70541924 -.00000009  00000+0  70480-5 0  9993
2 59859  43.0039  74.4243 0001662 251.9442 108.1234 15.40698813 28973
STARLINK-31651          
1 59860U 24098C   24328.78607877 -.00001090  00000+0 -18825-4 0  9999
2 59860  43.0059  75.0641 0002214 298.9684  61.0950 15.40692887 29629
STARLINK-31584          
1 59862U 24098E   24328.34121294  .00001472  00000+0  42478-4 0  9990
2 59862  43.0016  77.7428 0000881 255.0544 105.0215 15.40713316 29559
STARLINK-31950          
1 59863U 24098F   24329.36281092 -.00001611  00000+0 -31306-4 0  9992
2 59863  43.0056  71.6490 0001955 265.5888  94.4745 15.40688703 29062
STARLINK-31931          
1 59864U 24098G   24329.34489496  .00003233  00000+0  84696-4 0  9999
2 59864  43.0042  71.5091 0001878 261.7686  98.2958 15.40676828 29065
STARLINK-31938          
1 59865U 24098H   24329.33144451 -.00000141  00000+0  38935-5 0  9990
2 59865  43.0022  71.4048 0001237 229.8319 130.2429 15.40694302 29711
STARLINK-31941          
1 59866U 24098J   24329.16667824  .00191403  00000+0  18498-2 0  9996
2 59866  43.0001  60.8063 0019830  29.1951 162.9470 15.64831904 29174
STARLINK-31952          
1 59867U 24098K   24329.35832587 -.00003871  00000+0 -85360-4 0  9995
2 59867  43.0068  71.6179 0003642 301.5358  58.5143 15.40716526 29069
STARLINK-31921          
1 59868U 24098L   24328.28235901  .00000014  00000+0  76064-5 0  9990
2 59868  43.0058  44.3204 0001879 263.2177  96.8466 15.40702290 29929
STARLINK-31760          
1 59869U 24098M   24329.28454660 -.00001401  00000+0 -26284-4 0  9998
2 59869  43.0023  71.9158 0001372 285.5972  74.4733 15.40685468 29054
STARLINK-31945          
1 59870U 24098N   24328.34570818  .00000033  00000+0  80722-5 0  9996
2 59870  43.0040  77.7751 0001872 264.9841  95.0802 15.40700226 28908
STARLINK-31937          
1 59871U 24098P   24328.66760068  .00002508  00000+0  67251-4 0  9990
2 59871  43.0008  75.8949 0001942 221.7228 138.3481 15.40717213 29605
STARLINK-31940          
1 59873U 24098R   24329.37624964  .00002691  00000+0  71675-4 0  9993
2 59873  43.0037  71.7503 0002292 261.6321  98.4276 15.40694933 28909
STARLINK-31933          
1 59874U 24098S   24329.30917711 -.00013464  00000+0 -31487-3 0  9990
2 59874  43.0073  72.1055 0002799 272.0674  87.9862 15.40764770 29054
STARLINK-31936          
1 59875U 24098T   24329.48590181  .00001011  00000+0  31481-4 0  9996
2 59875  43.0027  30.7794 0001334 266.2922  93.7782 15.40673243 29532
STARLINK-31935          
1 59876U 24098U   24328.63847794  .00005376  00000+0  13582-3 0  9997
2 59876  43.0000  75.6672 0000614 226.1679 133.9127 15.40709336 29602
STARLINK-31934          
1 59877U 24098V   24329.34264917 -.00000825  00000+0 -12500-4 0  9993
2 59877  43.0020  71.4886 0001039 225.3659 134.7113 15.40693935 29068
STARLINK-31943          
1 59878U 24098W   24329.29126560 -.00003423  00000+0 -74750-4 0  9991
2 59878  43.0048  71.9678 0002638 286.3270  73.7297 15.40675507 29054
STARLINK-31926          
1 59879U 24098X   24329.28979422 -.00000160  00000+0  34405-5 0  9992
2 59879  43.0063  55.1094 0001083 197.4087 162.6733 15.40698102 29890
STARLINK-31919          
1 59880U 24098Y   24328.71675780 -.00000641  00000+0 -80745-5 0  9994
2 59880  43.0002  75.3914 0001633 189.0005 171.0822 15.40698140 29613
PREFIRE-2               
1 59881U 24099A   24328.55306196  .00009153  00000+0  49734-3 0  9996
2 59881  97.4723 183.0910 0014980  38.2136 322.0155 15.14629957 27558
STARLINK-31974          
1 59885U 24100A   24329.27215870  .00000014  00000+0  75906-5 0  9990
2 59885  43.0013 276.6969 0001041 254.9542 105.1199 15.40680845 28940
STARLINK-31975          
1 59886U 24100B   24329.26767319 -.00001505  00000+0 -28804-4 0  9992
2 59886  42.9984 276.6626 0000739 248.0359 112.0419 15.40687384 29026
STARLINK-31976          
1 59887U 24100C   24328.93218215 -.00000469  00000+0 -39659-5 0  9991
2 59887  42.9994 277.5480 0001153 210.5022 149.5768 15.40697787 28993
